STARLINK-6298           
1 56391U 23061T   26175.07885216  .00000253  00000+0  18704-4 0  9997
2 56391  43.0034 316.7958 0001002 267.7956  92.2781 15.27576183173021
STARLINK-6301           
1 56392U 23061U   26175.08029694 -.00000750  00000+0 -17725-4 0  9995
2 56392  43.0038 306.3841 0001408 277.7706  82.2986 15.27571905173142
STARLINK-6303           
1 56393U 23061V   26174.70837731 -.00000816  00000+0 -20140-4 0  9991
2 56393  43.0044 319.1756 0001636 276.9620  83.1045 15.27575888172965
STARLINK-6305           
1 56394U 23061W   26174.71482151 -.00000433  00000+0 -62239-5 0  9996
2 56394  43.0013 307.9417 0001465 267.9050  92.1634 15.27571217173099
STARLINK-6273           
1 56395U 23061X   26174.64057565  .00000078  00000+0  12362-4 0  9990
2 56395  43.0027 309.0936 0001572 263.5096  96.5576 15.27578785173781
STARLINK-6302           
1 56396U 23061Y   26175.05331128 -.00000178  00000+0  30515-5 0  9990
2 56396  43.0015 306.1782 0001168 273.4104  86.6615 15.27575811168276
STARLINK-6271           
1 56397U 23061Z   26175.09057348 -.00000446  00000+0 -66590-5 0  9995
2 56397  43.0050 306.4536 0001856 277.2047  82.8594 15.27575296173141
STARLINK-6288           
1 56398U 23061AA  26175.05716616  .00000053  00000+0  11457-4 0  9995
2 56398  43.0031 306.2039 0001139 272.2370  87.8351 15.27575890173141
STARLINK-6277           
1 56399U 23061AB  26175.04945842  .00000001  00000+0  95555-5 0  9995
2 56399  43.0024 306.1520 0001192 273.6356  86.4359 15.27576697173145
STARLINK-6267           
1 56400U 23061AC  26175.06101814  .00000172  00000+0  15777-4 0  9999
2 56400  43.0034 306.2356 0001310 272.7247  87.3455 15.27578520173142
STARLINK-6287           
1 56404U 23061AG  26175.08286341 -.00000097  00000+0  60129-5 0  9993
2 56404  43.0046 306.3886 0001670 272.9346  87.1314 15.27574433173140
STARLINK-6285           
1 56405U 23061AH  26175.06358999 -.00000234  00000+0  10207-5 0  9996
2 56405  43.0034 306.2510 0001328 270.9001  89.1699 15.27577049173141
STARLINK-6283           
1 56406U 23061AJ  26174.83544739  .00000658  00000+0  33442-4 0  9994
2 56406  43.0018 307.9649 0001542 252.7738 107.2945 15.27580432173100
STARLINK-6282           
1 56407U 23061AK  26175.07900866 -.00000875  00000+0 -22281-4 0  9991
2 56407  43.0061 306.3626 0001613 263.0700  96.9968 15.27576653173143
STARLINK-6289           
1 56408U 23061AL  26174.71608963  .00001094  00000+0  49286-4 0  9991
2 56408  43.0017 307.9255 0001304 271.9356  88.1347 15.27582415173093
STARLINK-6241           
1 56409U 23061AM  26175.08543627 -.00001660  00000+0 -50840-4 0  9997
2 56409  43.0029 306.4102 0001279 267.8809  92.1896 15.27569403173142
STARLINK-6281           
1 56410U 23061AN  26174.70967208  .00001560  00000+0  66217-4 0  9994
2 56410  43.0016 307.8897 0001294 269.6585  90.4118 15.27574153173094
STARLINK-6279           
1 56411U 23061AP  26175.08928574 -.00000184  00000+0  28713-5 0  9992
2 56411  43.0047 306.4416 0002268 284.0311  76.0289 15.27575290173149
STARLINK-6278           
1 56412U 23061AQ  26175.05074098 -.00000074  00000+0  68538-5 0  9990
2 56412  43.0032 306.1514 0001332 275.6412  84.4288 15.27575114173146
STARLINK-6258           
1 56413U 23061AR  26174.70853774 -.00000058  00000+0  74285-5 0  9996
2 56413  43.0024 308.7365 0001698 267.1540  92.9117 15.27575047173086
STARLINK-5136           
1 56414U 23061AS  26175.07258608 -.00007186  00000+0 -25168-3 0  9997
2 56414  43.0037 306.3089 0001602 270.8725  89.1943 15.27602727173147
STARLINK-6260           
1 56416U 23061AU  26175.05426891 -.00001543  00000+0 -46591-4 0  9993
2 56416  43.0027 299.1354 0000349 302.2011  57.8807 15.27564200173220
STARLINK-6261           
1 56417U 23061AV  26175.05844765  .00000305  00000+0  20610-4 0  9995
2 56417  43.0040 306.2049 0001333 272.2823  87.7876 15.27577328173142
STARLINK-5356           
1 56418U 23061AW  26174.76058377  .00000715  00000+0  35501-4 0  9999
2 56418  43.0016 300.3663 0001384 272.7731  87.2962 15.27579854173183
STARLINK-5350           
1 56419U 23061AX  26175.07643745  .00002130  00000+0  86904-4 0  9990
2 56419  43.0029 306.3397 0000903 259.4811 100.5939 15.27582123173147
STARLINK-6272           
1 56420U 23061AY  26175.02984491 -.00000103  00000+0  57992-5 0  9998
2 56420  43.0013 298.9467 0001323 270.4893  89.5807 15.27578228173226
STARLINK-6270           
1 56421U 23061AZ  26175.04605732  .00000155  00000+0  15165-4 0  9990
2 56421  43.0012 302.4778 0000844 268.2566  91.8189 15.27575443173181
STARLINK-6236           
1 56422U 23061BA  26175.04009007 -.00030581  00000+0 -11019-2 0  9994
2 56422  43.0029 299.0249 0001983 245.7056 114.3589 15.27711243173223
STARLINK-6239           
1 56423U 23061BB  26175.03369947 -.00000337  00000+0 -27306-5 0  9991
2 56423  43.0029 298.9775 0001209 273.3802  86.6912 15.27577412173222
STARLINK-6242           
1 56424U 23061BC  26175.04783501 -.00000347  00000+0 -30922-5 0  9998
2 56424  43.0020 299.0837 0000909 272.4243  87.6504 15.27574506173229
