OBJECT_NAME,OBJECT_ID,EPOCH,MEAN_MOTION,ECCENTRICITY,INCLINATION,RA_OF_ASC_NODE,ARG_OF_PERICENTER,MEAN_ANOMALY,EPHEMERIS_TYPE,CLASSIFICATION_TYPE,NORAD_CAT_ID,ELEMENT_SET_NO,REV_AT_EPOCH,BSTAR,MEAN_MOTION_DOT,MEAN_MOTION_DDOT
STARLINK-6298,2023-061T,2026-06-24T01:53:32.826624,15.27576183,.00010022,43.0034,316.7958,267.7956,92.2781,0,U,56391,999,17302,.18703827E-4,.253E-5,0
STARLINK-6301,2023-061U,2026-06-24T01:55:37.655616,15.27571905,.00014084,43.0038,306.3841,277.7706,82.2986,0,U,56392,999,17314,-.17724675E-4,-.75E-5,0
STARLINK-6303,2023-061V,2026-06-23T17:00:03.799584,15.27575888,.00016366,43.0044,319.1756,276.9620,83.1045,0,U,56393,999,17296,-.20139879E-4,-.816E-5,0
STARLINK-6305,2023-061W,2026-06-23T17:09:20.578464,15.27571217,.00014656,43.0013,307.9417,267.9050,92.1634,0,U,56394,999,17309,-.6223913E-5,-.433E-5,0
STARLINK-6273,2023-061X,2026-06-23T15:22:25.736160,15.27578785,.00015727,43.0027,309.0936,263.5096,96.5576,0,U,56395,999,17378,.12362414E-4,.78E-6,0
STARLINK-6302,2023-061Y,2026-06-24T01:16:46.094592,15.27575811,.00011683,43.0015,306.1782,273.4104,86.6615,0,U,56396,999,16827,.3051511E-5,-.178E-5,0
STARLINK-6271,2023-061Z,2026-06-24T02:10:25.548672,15.27575296,.00018569,43.0050,306.4536,277.2047,82.8594,0,U,56397,999,17314,-.6659034E-5,-.446E-5,0
STARLINK-6288,2023-061AA,2026-06-24T01:22:19.156224,15.27575890,.00011392,43.0031,306.2039,272.2370,87.8351,0,U,56398,999,17314,.11456539E-4,.53E-6,0
STARLINK-6277,2023-061AB,2026-06-24T01:11:13.207488,15.27576697,.00011924,43.0024,306.1520,273.6356,86.4359,0,U,56399,999,17314,.955552E-5,.1E-7,0
STARLINK-6267,2023-061AC,2026-06-24T01:27:51.967296,15.27578520,.00013108,43.0034,306.2356,272.7247,87.3455,0,U,56400,999,17314,.15777497E-4,.172E-5,0
STARLINK-6287,2023-061AG,2026-06-24T01:59:19.398624,15.27574433,.00016703,43.0046,306.3886,272.9346,87.1314,0,U,56404,999,17314,.6012864E-5,-.97E-6,0
STARLINK-6285,2023-061AH,2026-06-24T01:31:34.175136,15.27577049,.00013282,43.0034,306.2510,270.9001,89.1699,0,U,56405,999,17314,.1020651E-5,-.234E-5,0
STARLINK-6283,2023-061AJ,2026-06-23T20:03:02.654496,15.27580432,.00015426,43.0018,307.9649,252.7738,107.2945,0,U,56406,999,17310,.33442489E-4,.658E-5,0
STARLINK-6282,2023-061AK,2026-06-24T01:53:46.348224,15.27576653,.00016133,43.0061,306.3626,263.0700,96.9968,0,U,56407,999,17314,-.22281193E-4,-.875E-5,0
STARLINK-6289,2023-061AL,2026-06-23T17:11:10.144032,15.27582415,.00013042,43.0017,307.9255,271.9356,88.1347,0,U,56408,999,17309,.49286106E-4,.1094E-4,0
STARLINK-6241,2023-061AM,2026-06-24T02:03:01.693728,15.27569403,.00012791,43.0029,306.4102,267.8809,92.1896,0,U,56409,999,17314,-.50840476E-4,-.166E-4,0
STARLINK-6281,2023-061AN,2026-06-23T17:01:55.667712,15.27574153,.00012945,43.0016,307.8897,269.6585,90.4118,0,U,56410,999,17309,.66217347E-4,.156E-4,0
STARLINK-6279,2023-061AP,2026-06-24T02:08:34.287936,15.27575290,.00022681,43.0047,306.4416,284.0311,76.0289,0,U,56411,999,17314,.2871334E-5,-.184E-5,0
STARLINK-6278,2023-061AQ,2026-06-24T01:13:04.020672,15.27575114,.00013322,43.0032,306.1514,275.6412,84.4288,0,U,56412,999,17314,.6853754E-5,-.74E-6,0
STARLINK-6258,2023-061AR,2026-06-23T17:00:17.660736,15.27575047,.00016987,43.0024,308.7365,267.1540,92.9117,0,U,56413,999,17308,.7428504E-5,-.58E-6,0
STARLINK-5136,2023-061AS,2026-06-24T01:44:31.437312,15.27602727,.00016025,43.0037,306.3089,270.8725,89.1943,0,U,56414,999,17314,-.25167695E-3,-.7186E-4,0
STARLINK-6260,2023-061AU,2026-06-24T01:18:08.833824,15.27564200,.00003493,43.0027,299.1354,302.2011,57.8807,0,U,56416,999,17322,-.46591368E-4,-.1543E-4,0
STARLINK-6261,2023-061AV,2026-06-24T01:24:09.876960,15.27577328,.00013338,43.0040,306.2049,272.2823,87.7876,0,U,56417,999,17314,.20610374E-4,.305E-5,0
STARLINK-5356,2023-061AW,2026-06-23T18:15:14.437728,15.27579854,.00013848,43.0016,300.3663,272.7731,87.2962,0,U,56418,999,17318,.35500678E-4,.715E-5,0
STARLINK-5350,2023-061AX,2026-06-24T01:50:04.195680,15.27582123,.00009031,43.0029,306.3397,259.4811,100.5939,0,U,56419,999,17314,.86903889E-4,.213E-4,0
STARLINK-6272,2023-061AY,2026-06-24T00:42:58.600224,15.27578228,.00013239,43.0013,298.9467,270.4893,89.5807,0,U,56420,999,17322,.5799179E-5,-.103E-5,0
STARLINK-6270,2023-061AZ,2026-06-24T01:06:19.352448,15.27575443,.00008443,43.0012,302.4778,268.2566,91.8189,0,U,56421,999,17318,.15165124E-4,.155E-5,0
STARLINK-6236,2023-061BA,2026-06-24T00:57:43.782048,15.27711243,.00019836,43.0029,299.0249,245.7056,114.3589,0,U,56422,999,17322,-.11018559E-2,-.30581E-3,0
STARLINK-6239,2023-061BB,2026-06-24T00:48:31.634208,15.27577412,.00012098,43.0029,298.9775,273.3802,86.6912,0,U,56423,999,17322,-.273056E-5,-.337E-5,0
STARLINK-6242,2023-061BC,2026-06-24T01:08:52.944864,15.27574506,.00009096,43.0020,299.0837,272.4243,87.6504,0,U,56424,999,17322,-.309221E-5,-.347E-5,0
